STARLINK-36321          
1 68046U 26041G   26087.20078724  .00323820  00000+0  20245-2 0  9992
2 68046  53.1582 329.5603 0000783  70.4807 289.6298 15.75377030  4143
STARLINK-36181          
1 68047U 26041H   26087.16668981  .00095527  00000+0  62184-3 0  9997
2 68047  53.1588 329.5209 0001140 110.8393 158.7910 15.75182553  5220
STARLINK-36318          
1 68048U 26041J   26086.97003064  .00260869  00000+0  16471-2 0  9991
2 68048  53.1595 330.9757 0000554 103.3119 256.7963 15.75333893  4102
STARLINK-36885          
1 68049U 26041K   26087.22348179  .00190652  00000+0  12154-2 0  9996
2 68049  53.1606 329.7111 0000602  76.6931 283.4156 15.75325535  4143
STARLINK-36945          
1 68050U 26041L   26087.16668981 -.00085749  00000+0 -56008-3 0  9996
2 68050  53.1591 329.5775 0000959  61.1320 180.8629 15.75271911  5344
STARLINK-35911          
1 68051U 26041M   26087.16668981  .00047975  00000+0  31580-3 0  9992
2 68051  53.1591 329.5245 0001246  99.4361 168.3420 15.75206619  5305
STARLINK-35808          
1 68052U 26041N   26087.07422202  .00343781  00000+0  21437-2 0  9990
2 68052  53.1589 330.1930 0001918 274.5397  85.5404 15.75379742  4122
STARLINK-36919          
1 68053U 26041P   26087.16668981 -.00074410  00000+0 -48542-3 0  9996
2 68053  53.1589 329.4711 0000423  75.2296 218.2792 15.75244914  5347
STARLINK-36924          
1 68054U 26041Q   26087.16668981  .00020229  00000+0  13589-3 0  9997
2 68054  53.1597 329.9468 0001036  84.9449 336.7930 15.75226919  5344
STARLINK-35998          
1 68055U 26041R   26087.13280828  .00246252  00000+0  15620-2 0  9998
2 68055  53.1592 329.8435 0000744  80.4183 279.6921 15.75272185  4131
STARLINK-36845          
1 68056U 26041S   26087.00002315  .00001991  00000+0  17150-4 0  9999
2 68056  53.1598 330.4538 0000867  96.1212 256.2995 15.75242649  5329
STARLINK-36954          
1 68057U 26041T   26087.15549951  .00136884  00000+0  88025-3 0  9996
2 68057  53.1602 329.9954 0000709  59.1227 300.9862 15.75304086  4133
