CCSDS_OMM_VERS = 2.0
CREATION_DATE  = 
ORIGINATOR     = 

OBJECT_NAME    = STARLINK-36321
OBJECT_ID      = 2026-041G
CENTER_NAME    = EARTH
REF_FRAME      = TEME
TIME_SYSTEM    = UTC
MEAN_ELEMENT_THEORY = SGP/SGP4

EPOCH          = 2026-03-28T04:49:08.017536
MEAN_MOTION    = 15.75377030
ECCENTRICITY   = .00007838
INCLINATION    = 53.1582
RA_OF_ASC_NODE = 329.5603
ARG_OF_PERICENTER = 70.4807
MEAN_ANOMALY   = 289.6298

EPHEMERIS_TYPE = 0
CLASSIFICATION_TYPE = U
NORAD_CAT_ID   = 68046
ELEMENT_SET_NO = 999
REV_AT_EPOCH   = 414
BSTAR          = .20244795E-2
MEAN_MOTION_DOT = .32382E-2
MEAN_MOTION_DDOT = 0

CCSDS_OMM_VERS = 2.0
CREATION_DATE  = 
ORIGINATOR     = 

OBJECT_NAME    = STARLINK-36181
OBJECT_ID      = 2026-041H
CENTER_NAME    = EARTH
REF_FRAME      = TEME
TIME_SYSTEM    = UTC
MEAN_ELEMENT_THEORY = SGP/SGP4

EPOCH          = 2026-03-28T04:00:01.999584
MEAN_MOTION    = 15.75182553
ECCENTRICITY   = .00011405
INCLINATION    = 53.1588
RA_OF_ASC_NODE = 329.5209
ARG_OF_PERICENTER = 110.8393
MEAN_ANOMALY   = 158.7910

EPHEMERIS_TYPE = 0
CLASSIFICATION_TYPE = U
NORAD_CAT_ID   = 68047
ELEMENT_SET_NO = 999
REV_AT_EPOCH   = 522
BSTAR          = .62184202E-3
MEAN_MOTION_DOT = .95527E-3
MEAN_MOTION_DDOT = 0

CCSDS_OMM_VERS = 2.0
CREATION_DATE  = 
ORIGINATOR     = 

OBJECT_NAME    = STARLINK-36318
OBJECT_ID      = 2026-041J
CENTER_NAME    = EARTH
REF_FRAME      = TEME
TIME_SYSTEM    = UTC
MEAN_ELEMENT_THEORY = SGP/SGP4

EPOCH          = 2026-03-27T23:16:50.647296
MEAN_MOTION    = 15.75333893
ECCENTRICITY   = .0000554
INCLINATION    = 53.1595
RA_OF_ASC_NODE = 330.9757
ARG_OF_PERICENTER = 103.3119
MEAN_ANOMALY   = 256.7963

EPHEMERIS_TYPE = 0
CLASSIFICATION_TYPE = U
NORAD_CAT_ID   = 68048
ELEMENT_SET_NO = 999
REV_AT_EPOCH   = 410
BSTAR          = .16471E-2
MEAN_MOTION_DOT = .260869E-2
MEAN_MOTION_DDOT = 0

CCSDS_OMM_VERS = 2.0
CREATION_DATE  = 
ORIGINATOR     = 

OBJECT_NAME    = STARLINK-36885
OBJECT_ID      = 2026-041K
CENTER_NAME    = EARTH
REF_FRAME      = TEME
TIME_SYSTEM    = UTC
MEAN_ELEMENT_THEORY = SGP/SGP4

EPOCH          = 2026-03-28T05:21:48.826656
MEAN_MOTION    = 15.75325535
ECCENTRICITY   = .00006024
INCLINATION    = 53.1606
RA_OF_ASC_NODE = 329.7111
ARG_OF_PERICENTER = 76.6931
MEAN_ANOMALY   = 283.4156

EPHEMERIS_TYPE = 0
CLASSIFICATION_TYPE = U
NORAD_CAT_ID   = 68049
ELEMENT_SET_NO = 999
REV_AT_EPOCH   = 414
BSTAR          = .12154422E-2
MEAN_MOTION_DOT = .190652E-2
MEAN_MOTION_DDOT = 0

CCSDS_OMM_VERS = 2.0
CREATION_DATE  = 
ORIGINATOR     = 

OBJECT_NAME    = STARLINK-36945
OBJECT_ID      = 2026-041L
CENTER_NAME    = EARTH
REF_FRAME      = TEME
TIME_SYSTEM    = UTC
MEAN_ELEMENT_THEORY = SGP/SGP4

EPOCH          = 2026-03-28T04:00:01.999584
MEAN_MOTION    = 15.75271911
ECCENTRICITY   = .00009599
INCLINATION    = 53.1591
RA_OF_ASC_NODE = 329.5775
ARG_OF_PERICENTER = 61.1320
MEAN_ANOMALY   = 180.8629

EPHEMERIS_TYPE = 0
CLASSIFICATION_TYPE = U
NORAD_CAT_ID   = 68050
ELEMENT_SET_NO = 999
REV_AT_EPOCH   = 534
BSTAR          = -.56008166E-3
MEAN_MOTION_DOT = -.85749E-3
MEAN_MOTION_DDOT = 0

CCSDS_OMM_VERS = 2.0
CREATION_DATE  = 
ORIGINATOR     = 

OBJECT_NAME    = STARLINK-35911
OBJECT_ID      = 2026-041M
CENTER_NAME    = EARTH
REF_FRAME      = TEME
TIME_SYSTEM    = UTC
MEAN_ELEMENT_THEORY = SGP/SGP4

EPOCH          = 2026-03-28T04:00:01.999584
MEAN_MOTION    = 15.75206619
ECCENTRICITY   = .00012465
INCLINATION    = 53.1591
RA_OF_ASC_NODE = 329.5245
ARG_OF_PERICENTER = 99.4361
MEAN_ANOMALY   = 168.3420

EPHEMERIS_TYPE = 0
CLASSIFICATION_TYPE = U
NORAD_CAT_ID   = 68051
ELEMENT_SET_NO = 999
REV_AT_EPOCH   = 530
BSTAR          = .31580162E-3
MEAN_MOTION_DOT = .47975E-3
MEAN_MOTION_DDOT = 0

CCSDS_OMM_VERS = 2.0
CREATION_DATE  = 
ORIGINATOR     = 

OBJECT_NAME    = STARLINK-35808
OBJECT_ID      = 2026-041N
CENTER_NAME    = EARTH
REF_FRAME      = TEME
TIME_SYSTEM    = UTC
MEAN_ELEMENT_THEORY = SGP/SGP4

EPOCH          = 2026-03-28T01:46:52.782528
MEAN_MOTION    = 15.75379742
ECCENTRICITY   = .00019184
INCLINATION    = 53.1589
RA_OF_ASC_NODE = 330.1930
ARG_OF_PERICENTER = 274.5397
MEAN_ANOMALY   = 85.5404

EPHEMERIS_TYPE = 0
CLASSIFICATION_TYPE = U
NORAD_CAT_ID   = 68052
ELEMENT_SET_NO = 999
REV_AT_EPOCH   = 412
BSTAR          = .21437321E-2
MEAN_MOTION_DOT = .343781E-2
MEAN_MOTION_DDOT = 0

CCSDS_OMM_VERS = 2.0
CREATION_DATE  = 
ORIGINATOR     = 

OBJECT_NAME    = STARLINK-36919
OBJECT_ID      = 2026-041P
CENTER_NAME    = EARTH
REF_FRAME      = TEME
TIME_SYSTEM    = UTC
MEAN_ELEMENT_THEORY = SGP/SGP4

EPOCH          = 2026-03-28T04:00:01.999584
MEAN_MOTION    = 15.75244914
ECCENTRICITY   = .00004238
INCLINATION    = 53.1589
RA_OF_ASC_NODE = 329.4711
ARG_OF_PERICENTER = 75.2296
MEAN_ANOMALY   = 218.2792

EPHEMERIS_TYPE = 0
CLASSIFICATION_TYPE = U
NORAD_CAT_ID   = 68053
ELEMENT_SET_NO = 999
REV_AT_EPOCH   = 534
BSTAR          = -.48541509E-3
MEAN_MOTION_DOT = -.7441E-3
MEAN_MOTION_DDOT = 0

CCSDS_OMM_VERS = 2.0
CREATION_DATE  = 
ORIGINATOR     = 

OBJECT_NAME    = STARLINK-36924
OBJECT_ID      = 2026-041Q
CENTER_NAME    = EARTH
REF_FRAME      = TEME
TIME_SYSTEM    = UTC
MEAN_ELEMENT_THEORY = SGP/SGP4

EPOCH          = 2026-03-28T04:00:01.999584
MEAN_MOTION    = 15.75226919
ECCENTRICITY   = .00010364
INCLINATION    = 53.1597
RA_OF_ASC_NODE = 329.9468
ARG_OF_PERICENTER = 84.9449
MEAN_ANOMALY   = 336.7930

EPHEMERIS_TYPE = 0
CLASSIFICATION_TYPE = U
NORAD_CAT_ID   = 68054
ELEMENT_SET_NO = 999
REV_AT_EPOCH   = 534
BSTAR          = .13588847E-3
MEAN_MOTION_DOT = .20229E-3
MEAN_MOTION_DDOT = 0

CCSDS_OMM_VERS = 2.0
CREATION_DATE  = 
ORIGINATOR     = 

OBJECT_NAME    = STARLINK-35998
OBJECT_ID      = 2026-041R
CENTER_NAME    = EARTH
REF_FRAME      = TEME
TIME_SYSTEM    = UTC
MEAN_ELEMENT_THEORY = SGP/SGP4

EPOCH          = 2026-03-28T03:11:14.635392
MEAN_MOTION    = 15.75272185
ECCENTRICITY   = .00007449
INCLINATION    = 53.1592
RA_OF_ASC_NODE = 329.8435
ARG_OF_PERICENTER = 80.4183
MEAN_ANOMALY   = 279.6921

EPHEMERIS_TYPE = 0
CLASSIFICATION_TYPE = U
NORAD_CAT_ID   = 68055
ELEMENT_SET_NO = 999
REV_AT_EPOCH   = 413
BSTAR          = .15619722E-2
MEAN_MOTION_DOT = .246252E-2
MEAN_MOTION_DDOT = 0

CCSDS_OMM_VERS = 2.0
CREATION_DATE  = 
ORIGINATOR     = 

OBJECT_NAME    = STARLINK-36845
OBJECT_ID      = 2026-041S
CENTER_NAME    = EARTH
REF_FRAME      = TEME
TIME_SYSTEM    = UTC
MEAN_ELEMENT_THEORY = SGP/SGP4

EPOCH          = 2026-03-28T00:00:02.000160
MEAN_MOTION    = 15.75242649
ECCENTRICITY   = .00008678
INCLINATION    = 53.1598
RA_OF_ASC_NODE = 330.4538
ARG_OF_PERICENTER = 96.1212
MEAN_ANOMALY   = 256.2995

EPHEMERIS_TYPE = 0
CLASSIFICATION_TYPE = U
NORAD_CAT_ID   = 68056
ELEMENT_SET_NO = 999
REV_AT_EPOCH   = 532
BSTAR          = .17150414E-4
MEAN_MOTION_DOT = .1991E-4
MEAN_MOTION_DDOT = 0

CCSDS_OMM_VERS = 2.0
CREATION_DATE  = 
ORIGINATOR     = 

OBJECT_NAME    = STARLINK-36954
OBJECT_ID      = 2026-041T
CENTER_NAME    = EARTH
REF_FRAME      = TEME
TIME_SYSTEM    = UTC
MEAN_ELEMENT_THEORY = SGP/SGP4

EPOCH          = 2026-03-28T03:43:55.157664
MEAN_MOTION    = 15.75304086
ECCENTRICITY   = .0000709
INCLINATION    = 53.1602
RA_OF_ASC_NODE = 329.9954
ARG_OF_PERICENTER = 59.1227
MEAN_ANOMALY   = 300.9862

EPHEMERIS_TYPE = 0
CLASSIFICATION_TYPE = U
NORAD_CAT_ID   = 68057
ELEMENT_SET_NO = 999
REV_AT_EPOCH   = 413
BSTAR          = .88025E-3
MEAN_MOTION_DOT = .136884E-2
MEAN_MOTION_DDOT = 0

